[{"ORDINAL":"2","COMMENT":"GENERATED VIA SPACETRACK.ORG API","ORIGINATOR":"JSPOC","NORAD_CAT_ID":"39629","OBJECT_NAME":"CZ-2C DEB","OBJECT_TYPE":"DEBRIS","CLASSIFICATION_TYPE":"U","INTLDES":"14014F","EPOCH":"2014-12-01 19:20:13","EPOCH_MICROSECONDS":"999775","MEAN_MOTION":"14.21944262","ECCENTRICITY":"0.0180573","INCLINATION":"98.4699","RA_OF_ASC_NODE":"20.3354","ARG_OF_PERICENTER":"177.9277","MEAN_ANOMALY":"182.269","EPHEMERIS_TYPE":"0","ELEMENT_SET_NO":"138","REV_AT_EPOCH":"3489","BSTAR":"0.0011549","MEAN_MOTION_DOT":"2.967e-05","MEAN_MOTION_DDOT":"0","FILE":"1786900","TLE_LINE0":"0 CZ-2C DEB","TLE_LINE1":"1 39629U 14014F   14335.80571759  .00002967  00000-0  11549-2 0  1388","TLE_LINE2":"2 39629 098.4699 020.3354 0180573 177.9277 182.2690 14.21944262 34894","OBJECT_ID":"2014-014F","OBJECT_NUMBER":"39629"},{"ORDINAL":"2","COMMENT":"GENERATED VIA SPACETRACK.ORG API","ORIGINATOR":"JSPOC","NORAD_CAT_ID":"39627","OBJECT_NAME":"CZ-2C DEB","OBJECT_TYPE":"DEBRIS","CLASSIFICATION_TYPE":"U","INTLDES":"14014D","EPOCH":"2014-12-01 13:25:06","EPOCH_MICROSECONDS":"688416","MEAN_MOTION":"14.20514228","ECCENTRICITY":"0.0185743","INCLINATION":"98.0614","RA_OF_ASC_NODE":"8.3834","ARG_OF_PERICENTER":"170.6743","MEAN_ANOMALY":"189.7964","EPHEMERIS_TYPE":"0","ELEMENT_SET_NO":"138","REV_AT_EPOCH":"3483","BSTAR":"0.0013807","MEAN_MOTION_DOT":"3.49e-05","MEAN_MOTION_DDOT":"0","FILE":"1786697","TLE_LINE0":"0 CZ-2C DEB","TLE_LINE1":"1 39627U 14014D   14335.55910519  .00003490  00000-0  13807-2 0  1380","TLE_LINE2":"2 39627 098.0614 008.3834 0185743 170.6743 189.7964 14.20514228 34830","OBJECT_ID":"2014-014D","OBJECT_NUMBER":"39627"},{"ORDINAL":"2","COMMENT":"GENERATED VIA SPACETRACK.ORG API","ORIGINATOR":"JSPOC","NORAD_CAT_ID":"39524","OBJECT_NAME":"BREEZE-M DEB (TANK)","OBJECT_TYPE":"DEBRIS","CLASSIFICATION_TYPE":"U","INTLDES":"14007C","EPOCH":"2014-12-01 10:02:21","EPOCH_MICROSECONDS":"760224","MEAN_MOTION":"3.7143616","ECCENTRICITY":"0.6179644","INCLINATION":"49.3946","RA_OF_ASC_NODE":"330.4584","ARG_OF_PERICENTER":"116.5546","MEAN_ANOMALY":"318.1403","EPHEMERIS_TYPE":"0","ELEMENT_SET_NO":"177","REV_AT_EPOCH":"1072","BSTAR":"0.00086928","MEAN_MOTION_DOT":"1.21e-05","MEAN_MOTION_DDOT":"0","FILE":"1786812","TLE_LINE0":"0 BREEZE-M DEB (TANK)","TLE_LINE1":"1 39524U 14007C   14335.41830741  .00001210  00000-0  86928-3 0  1777","TLE_LINE2":"2 39524 049.3946 330.4584 6179644 116.5546 318.1403 03.71436160 10723","OBJECT_ID":"2014-007C","OBJECT_NUMBER":"39524"},{"ORDINAL":"3","COMMENT":"GENERATED VIA SPACETRACK.ORG API","ORIGINATOR":"JSPOC","NORAD_CAT_ID":"40274","OBJECT_NAME":"ARIANE 5 DEB (SYLDA)","OBJECT_TYPE":"DEBRIS","CLASSIFICATION_TYPE":"U","INTLDES":"14062D","EPOCH":"2014-12-01 08:28:46","EPOCH_MICROSECONDS":"894656","MEAN_MOTION":"2.30297972","ECCENTRICITY":"0.7260611","INCLINATION":"5.9187","RA_OF_ASC_NODE":"159.4104","ARG_OF_PERICENTER":"215.7593","MEAN_ANOMALY":"60.9225","EPHEMERIS_TYPE":"0","ELEMENT_SET_NO":"29","REV_AT_EPOCH":"103","BSTAR":"0.0062213","MEAN_MOTION_DOT":"0.00019161","MEAN_MOTION_DDOT":"0","FILE":"1786676","TLE_LINE0":"0 ARIANE 5 DEB (SYLDA)","TLE_LINE1":"1 40274U 14062D   14335.35332054  .00019161  00000-0  62213-2 0   299","TLE_LINE2":"2 40274 005.9187 159.4104 7260611 215.7593 060.9225 02.30297972  1037","OBJECT_ID":"2014-062D","OBJECT_NUMBER":"40274"},{"ORDINAL":"2","COMMENT":"GENERATED VIA SPACETRACK.ORG API","ORIGINATOR":"JSPOC","NORAD_CAT_ID":"40291","OBJECT_NAME":"CZ-2C DEB","OBJECT_TYPE":"DEBRIS","CLASSIFICATION_TYPE":"U","INTLDES":"14066F","EPOCH":"2014-12-01 06:05:03","EPOCH_MICROSECONDS":"164640","MEAN_MOTION":"14.21511776","ECCENTRICITY":"0.0180505","INCLINATION":"98.442","RA_OF_ASC_NODE":"87.9328","ARG_OF_PERICENTER":"67.8871","MEAN_ANOMALY":"294.1363","EPHEMERIS_TYPE":"0","ELEMENT_SET_NO":"22","REV_AT_EPOCH":"496","BSTAR":"0.0015216","MEAN_MOTION_DOT":"3.89e-05","MEAN_MOTION_DDOT":"0","FILE":"1786523","TLE_LINE0":"0 CZ-2C DEB","TLE_LINE1":"1 40291U 14066F   14335.25350885  .00003890  00000-0  15216-2 0   229","TLE_LINE2":"2 40291 098.4420 087.9328 0180505 067.8871 294.1363 14.21511776  4960","OBJECT_ID":"2014-066F","OBJECT_NUMBER":"40291"},{"ORDINAL":"2","COMMENT":"GENERATED VIA SPACETRACK.ORG API","ORIGINATOR":"JSPOC","NORAD_CAT_ID":"40263","OBJECT_NAME":"CZ-2C DEB","OBJECT_TYPE":"DEBRIS","CLASSIFICATION_TYPE":"U","INTLDES":"14059C","EPOCH":"2014-12-01 05:41:19","EPOCH_MICROSECONDS":"460256","MEAN_MOTION":"14.47086149","ECCENTRICITY":"0.0114971","INCLINATION":"98.3317","RA_OF_ASC_NODE":"62.4074","ARG_OF_PERICENTER":"26.4702","MEAN_ANOMALY":"334.2301","EPHEMERIS_TYPE":"0","ELEMENT_SET_NO":"46","REV_AT_EPOCH":"926","BSTAR":"0.0012172","MEAN_MOTION_DOT":"4.771e-05","MEAN_MOTION_DDOT":"0","FILE":"1786490","TLE_LINE0":"0 CZ-2C DEB","TLE_LINE1":"1 40263U 14059C   14335.23703079  .00004771  00000-0  12172-2 0   468","TLE_LINE2":"2 40263 098.3317 062.4074 0114971 026.4702 334.2301 14.47086149  9262","OBJECT_ID":"2014-059C","OBJECT_NUMBER":"40263"},{"ORDINAL":"3","COMMENT":"GENERATED VIA SPACETRACK.ORG API","ORIGINATOR":"JSPOC","NORAD_CAT_ID":"40151","OBJECT_NAME":"FOTON M4 DEB","OBJECT_TYPE":"DEBRIS","CLASSIFICATION_TYPE":"U","INTLDES":"14041D","EPOCH":"2014-12-01 05:12:33","EPOCH_MICROSECONDS":"746399","MEAN_MOTION":"15.12713151","ECCENTRICITY":"0.0070657","INCLINATION":"65.0022","RA_OF_ASC_NODE":"269.2479","ARG_OF_PERICENTER":"43.3484","MEAN_ANOMALY":"317.2522","EPHEMERIS_TYPE":"0","ELEMENT_SET_NO":"102","REV_AT_EPOCH":"1217","BSTAR":"0.0077274","MEAN_MOTION_DOT":"0.00147061","MEAN_MOTION_DDOT":"0","FILE":"1786561","TLE_LINE0":"0 FOTON M4 DEB","TLE_LINE1":"1 40151U 14041D   14335.21705725  .00147061  00000-0  77274-2 0  1020","TLE_LINE2":"2 40151 065.0022 269.2479 0070657 043.3484 317.2522 15.12713151 12178","OBJECT_ID":"2014-041D","OBJECT_NUMBER":"40151"},{"ORDINAL":"2","COMMENT":"GENERATED VIA SPACETRACK.ORG API","ORIGINATOR":"JSPOC","NORAD_CAT_ID":"40290","OBJECT_NAME":"CZ-2C DEB","OBJECT_TYPE":"DEBRIS","CLASSIFICATION_TYPE":"U","INTLDES":"14066E","EPOCH":"2014-12-01 05:10:55","EPOCH_MICROSECONDS":"606367","MEAN_MOTION":"14.48930417","ECCENTRICITY":"0.0104136","INCLINATION":"97.9673","RA_OF_ASC_NODE":"87.5658","ARG_OF_PERICENTER":"118.2719","MEAN_ANOMALY":"242.9032","EPHEMERIS_TYPE":"0","ELEMENT_SET_NO":"30","REV_AT_EPOCH":"506","BSTAR":"0.0013663","MEAN_MOTION_DOT":"5.502e-05","MEAN_MOTION_DDOT":"0","FILE":"1786523","TLE_LINE0":"0 CZ-2C DEB","TLE_LINE1":"1 40290U 14066E   14335.21592137  .00005502  00000-0  13663-2 0   307","TLE_LINE2":"2 40290 097.9673 087.5658 0104136 118.2719 242.9032 14.48930417  5065","OBJECT_ID":"2014-066E","OBJECT_NUMBER":"40290"},{"ORDINAL":"2","COMMENT":"GENERATED VIA SPACETRACK.ORG API","ORIGINATOR":"JSPOC","NORAD_CAT_ID":"40078","OBJECT_NAME":"FREGAT DEB","OBJECT_TYPE":"DEBRIS","CLASSIFICATION_TYPE":"U","INTLDES":"14037K","EPOCH":"2014-12-01 04:30:28","EPOCH_MICROSECONDS":"327967","MEAN_MOTION":"14.51536186","ECCENTRICITY":"0.0139187","INCLINATION":"98.3638","RA_OF_ASC_NODE":"26.2347","ARG_OF_PERICENTER":"136.8847","MEAN_ANOMALY":"224.3338","EPHEMERIS_TYPE":"0","ELEMENT_SET_NO":"151","REV_AT_EPOCH":"2110","BSTAR":"0.00022017","MEAN_MOTION_DOT":"9.48e-06","MEAN_MOTION_DDOT":"0","FILE":"1786524","TLE_LINE0":"0 FREGAT DEB","TLE_LINE1":"1 40078U 14037K   14335.18782787  .00000948  00000-0  22017-3 0  1514","TLE_LINE2":"2 40078 098.3638 026.2347 0139187 136.8847 224.3338 14.51536186 21107","OBJECT_ID":"2014-037K","OBJECT_NUMBER":"40078"},{"ORDINAL":"4","COMMENT":"GENERATED VIA SPACETRACK.ORG API","ORIGINATOR":"JSPOC","NORAD_CAT_ID":"39730","OBJECT_NAME":"BREEZE-M DEB (TANK)","OBJECT_TYPE":"DEBRIS","CLASSIFICATION_TYPE":"U","INTLDES":"14023D","EPOCH":"2014-12-01 04:24:30","EPOCH_MICROSECONDS":"912767","MEAN_MOTION":"2.29356561","ECCENTRICITY":"0.7287827","INCLINATION":"47.058","RA_OF_ASC_NODE":"230.4722","ARG_OF_PERICENTER":"57.1782","MEAN_ANOMALY":"352.8528","EPHEMERIS_TYPE":"0","ELEMENT_SET_NO":"185","REV_AT_EPOCH":"494","BSTAR":"0.0024371","MEAN_MOTION_DOT":"0.00022616","MEAN_MOTION_DDOT":"0","FILE":"1786956","TLE_LINE0":"0 BREEZE-M DEB (TANK)","TLE_LINE1":"1 39730U 14023D   14335.18369112  .00022616  00000-0  24371-2 0  1852","TLE_LINE2":"2 39730 047.0580 230.4722 7287827 057.1782 352.8528 02.29356561  4948","OBJECT_ID":"2014-023D","OBJECT_NUMBER":"39730"},{"ORDINAL":"2","COMMENT":"GENERATED VIA SPACETRACK.ORG API","ORIGINATOR":"JSPOC","NORAD_CAT_ID":"39626","OBJECT_NAME":"CZ-2C DEB","OBJECT_TYPE":"DEBRIS","CLASSIFICATION_TYPE":"U","INTLDES":"14014C","EPOCH":"2014-12-01 02:07:56","EPOCH_MICROSECONDS":"735039","MEAN_MOTION":"14.49066427","ECCENTRICITY":"0.0111518","INCLINATION":"98.0252","RA_OF_ASC_NODE":"17.2995","ARG_OF_PERICENTER":"193.6694","MEAN_ANOMALY":"166.1474","EPHEMERIS_TYPE":"0","ELEMENT_SET_NO":"154","REV_AT_EPOCH":"3544","BSTAR":"0.0019854","MEAN_MOTION_DOT":"8.122e-05","MEAN_MOTION_DDOT":"0","FILE":"1786445","TLE_LINE0":"0 CZ-2C DEB","TLE_LINE1":"1 39626U 14014C   14335.08885110  .00008122  00000-0  19854-2 0  1548","TLE_LINE2":"2 39626 098.0252 017.2995 0111518 193.6694 166.1474 14.49066427 35440","OBJECT_ID":"2014-014C","OBJECT_NUMBER":"39626"},{"ORDINAL":"1","COMMENT":"GENERATED VIA SPACETRACK.ORG API","ORIGINATOR":"JSPOC","NORAD_CAT_ID":"40328","OBJECT_NAME":"DEBRIS","OBJECT_TYPE":"DEBRIS","CLASSIFICATION_TYPE":"U","INTLDES":"14000A","EPOCH":"2014-12-01 00:54:01","EPOCH_MICROSECONDS":"33344","MEAN_MOTION":"2.02595534","ECCENTRICITY":"0.5158218","INCLINATION":"70.4643","RA_OF_ASC_NODE":"274.466","ARG_OF_PERICENTER":"125.3218","MEAN_ANOMALY":"294.4142","EPHEMERIS_TYPE":"0","ELEMENT_SET_NO":"2","REV_AT_EPOCH":"758","BSTAR":"0","MEAN_MOTION_DOT":"1.17e-06","MEAN_MOTION_DDOT":"0","FILE":"1788247","TLE_LINE0":"0 DEBRIS","TLE_LINE1":"1 40328U 14000A   14335.03751196  .00000117  00000-0  00000+0 0    23","TLE_LINE2":"2 40328 070.4643 274.4660 5158218 125.3218 294.4142 02.02595534  7585","OBJECT_ID":"2014-000A","OBJECT_NUMBER":"40328"}]